SL-16 R/B               
1 22285U 92093B   25312.18585829  .00000312  00000+0  18406-3 0  9998
2 22285  71.0205 259.3280 0003116 162.9971 197.1257 14.15420143695963
COSMOS 2228             
1 22286U 92094A   25312.19090897  .00003458  00000+0  30139-3 0  9998
2 22286  82.5192 353.5880 0017855 356.2761   3.8325 14.96491965757887
SL-16 R/B               
1 22566U 93016B   25312.14349646 -.00000023  00000+0  12535-4 0  9995
2 22566  71.0046 110.4620 0009333 160.1683 199.9804 14.15278298684979
COSMOS 2242             
1 22626U 93024A   25312.18919382  .00003031  00000+0  26813-3 0  9999
2 22626  82.5218  22.8592 0016280 359.2656   0.8539 14.95890734762221
SL-16 R/B               
1 22803U 93059B   25312.14682799  .00000102  00000+0  74326-4 0  9998
2 22803  70.9892 267.4307 0015877  28.5166 331.6823 14.17202454662311
ARIANE 40 R/B           
1 22830U 93061H   25312.18998595  .00000389  00000+0  15884-3 0  9999
2 22830  98.5119  18.3420 0009611 285.0658  74.9462 14.32767657676705
COSMOS 2278             
1 23087U 94023A   25311.73905108  .00000256  00000+0  15841-3 0  9997
2 23087  71.0527  70.2333 0010249 224.3213 135.7089 14.14333200627565
SL-16 R/B               
1 23088U 94023B   25312.19477076 -.00000121  00000+0 -37827-4 0  9999
2 23088  71.0003 326.0341 0001628 172.9017 187.2129 14.14993057628905
SL-16 R/B               
1 23343U 94074B   25312.10990441  .00000759  00000+0  10887-3 0  9997
2 23343  97.7249 342.7835 0005166 254.0094 169.6617 14.79227744669272
SL-16 R/B               
1 23405U 94077B   25312.15310900  .00000326  00000+0  19129-3 0  9998
2 23405  70.9821 248.1719 0003683 312.2181  47.8629 14.15540959599038
ARIANE 40+ R/B          
1 23561U 95021B   25312.19445840  .00000520  00000+0  18028-3 0  9990
2 23561  98.4690  20.1942 0007537 139.6648 278.8890 14.39653294601760
SL-16 R/B               
1 23705U 95058B   25312.08339051  .00000125  00000+0  88407-4 0  9994
2 23705  71.0216  75.5613 0014611 300.1908  59.7767 14.15475619550641
