CCSDS_OMM_VERS = 2.0
CREATION_DATE  = 
ORIGINATOR     = 

OBJECT_NAME    = SL-16 R/B
OBJECT_ID      = 1992-093B
CENTER_NAME    = EARTH
REF_FRAME      = TEME
TIME_SYSTEM    = UTC
MEAN_ELEMENT_THEORY = SGP/SGP4

EPOCH          = 2025-11-08T04:27:38.156256
MEAN_MOTION    = 14.15420143
ECCENTRICITY   = .0003116
INCLINATION    = 71.0205
RA_OF_ASC_NODE = 259.3280
ARG_OF_PERICENTER = 162.9971
MEAN_ANOMALY   = 197.1257

EPHEMERIS_TYPE = 0
CLASSIFICATION_TYPE = U
NORAD_CAT_ID   = 22285
ELEMENT_SET_NO = 999
REV_AT_EPOCH   = 69596
BSTAR          = .18406E-3
MEAN_MOTION_DOT = .312E-5
MEAN_MOTION_DDOT = 0

CCSDS_OMM_VERS = 2.0
CREATION_DATE  = 
ORIGINATOR     = 

OBJECT_NAME    = COSMOS 2228
OBJECT_ID      = 1992-094A
CENTER_NAME    = EARTH
REF_FRAME      = TEME
TIME_SYSTEM    = UTC
MEAN_ELEMENT_THEORY = SGP/SGP4

EPOCH          = 2025-11-08T04:34:54.535008
MEAN_MOTION    = 14.96491965
ECCENTRICITY   = .0017855
INCLINATION    = 82.5192
RA_OF_ASC_NODE = 353.5880
ARG_OF_PERICENTER = 356.2761
MEAN_ANOMALY   = 3.8325

EPHEMERIS_TYPE = 0
CLASSIFICATION_TYPE = U
NORAD_CAT_ID   = 22286
ELEMENT_SET_NO = 999
REV_AT_EPOCH   = 75788
BSTAR          = .30139E-3
MEAN_MOTION_DOT = .3458E-4
MEAN_MOTION_DDOT = 0

CCSDS_OMM_VERS = 2.0
CREATION_DATE  = 
ORIGINATOR     = 

OBJECT_NAME    = SL-16 R/B
OBJECT_ID      = 1993-016B
CENTER_NAME    = EARTH
REF_FRAME      = TEME
TIME_SYSTEM    = UTC
MEAN_ELEMENT_THEORY = SGP/SGP4

EPOCH          = 2025-11-08T03:26:38.094144
MEAN_MOTION    = 14.15278298
ECCENTRICITY   = .0009333
INCLINATION    = 71.0046
RA_OF_ASC_NODE = 110.4620
ARG_OF_PERICENTER = 160.1683
MEAN_ANOMALY   = 199.9804

EPHEMERIS_TYPE = 0
CLASSIFICATION_TYPE = U
NORAD_CAT_ID   = 22566
ELEMENT_SET_NO = 999
REV_AT_EPOCH   = 68497
BSTAR          = .12535E-4
MEAN_MOTION_DOT = -.23E-6
MEAN_MOTION_DDOT = 0

CCSDS_OMM_VERS = 2.0
CREATION_DATE  = 
ORIGINATOR     = 

OBJECT_NAME    = COSMOS 2242
OBJECT_ID      = 1993-024A
CENTER_NAME    = EARTH
REF_FRAME      = TEME
TIME_SYSTEM    = UTC
MEAN_ELEMENT_THEORY = SGP/SGP4

EPOCH          = 2025-11-08T04:32:26.346048
MEAN_MOTION    = 14.95890734
ECCENTRICITY   = .001628
INCLINATION    = 82.5218
RA_OF_ASC_NODE = 22.8592
ARG_OF_PERICENTER = 359.2656
MEAN_ANOMALY   = 0.8539

EPHEMERIS_TYPE = 0
CLASSIFICATION_TYPE = U
NORAD_CAT_ID   = 22626
ELEMENT_SET_NO = 999
REV_AT_EPOCH   = 76222
BSTAR          = .26813E-3
MEAN_MOTION_DOT = .3031E-4
MEAN_MOTION_DDOT = 0

CCSDS_OMM_VERS = 2.0
CREATION_DATE  = 
ORIGINATOR     = 

OBJECT_NAME    = SL-16 R/B
OBJECT_ID      = 1993-059B
CENTER_NAME    = EARTH
REF_FRAME      = TEME
TIME_SYSTEM    = UTC
MEAN_ELEMENT_THEORY = SGP/SGP4

EPOCH          = 2025-11-08T03:31:25.938336
MEAN_MOTION    = 14.17202454
ECCENTRICITY   = .0015877
INCLINATION    = 70.9892
RA_OF_ASC_NODE = 267.4307
ARG_OF_PERICENTER = 28.5166
MEAN_ANOMALY   = 331.6823

EPHEMERIS_TYPE = 0
CLASSIFICATION_TYPE = U
NORAD_CAT_ID   = 22803
ELEMENT_SET_NO = 999
REV_AT_EPOCH   = 66231
BSTAR          = .74326E-4
MEAN_MOTION_DOT = .102E-5
MEAN_MOTION_DDOT = 0

CCSDS_OMM_VERS = 2.0
CREATION_DATE  = 
ORIGINATOR     = 

OBJECT_NAME    = ARIANE 40 R/B
OBJECT_ID      = 1993-061H
CENTER_NAME    = EARTH
REF_FRAME      = TEME
TIME_SYSTEM    = UTC
MEAN_ELEMENT_THEORY = SGP/SGP4

EPOCH          = 2025-11-08T04:33:34.786080
MEAN_MOTION    = 14.32767657
ECCENTRICITY   = .0009611
INCLINATION    = 98.5119
RA_OF_ASC_NODE = 18.3420
ARG_OF_PERICENTER = 285.0658
MEAN_ANOMALY   = 74.9462

EPHEMERIS_TYPE = 0
CLASSIFICATION_TYPE = U
NORAD_CAT_ID   = 22830
ELEMENT_SET_NO = 999
REV_AT_EPOCH   = 67670
BSTAR          = .15884E-3
MEAN_MOTION_DOT = .389E-5
MEAN_MOTION_DDOT = 0

CCSDS_OMM_VERS = 2.0
CREATION_DATE  = 
ORIGINATOR     = 

OBJECT_NAME    = COSMOS 2278
OBJECT_ID      = 1994-023A
CENTER_NAME    = EARTH
REF_FRAME      = TEME
TIME_SYSTEM    = UTC
MEAN_ELEMENT_THEORY = SGP/SGP4

EPOCH          = 2025-11-07T17:44:14.013312
MEAN_MOTION    = 14.14333200
ECCENTRICITY   = .0010249
INCLINATION    = 71.0527
RA_OF_ASC_NODE = 70.2333
ARG_OF_PERICENTER = 224.3213
MEAN_ANOMALY   = 135.7089

EPHEMERIS_TYPE = 0
CLASSIFICATION_TYPE = U
NORAD_CAT_ID   = 23087
ELEMENT_SET_NO = 999
REV_AT_EPOCH   = 62756
BSTAR          = .15841E-3
MEAN_MOTION_DOT = .256E-5
MEAN_MOTION_DDOT = 0

CCSDS_OMM_VERS = 2.0
CREATION_DATE  = 
ORIGINATOR     = 

OBJECT_NAME    = SL-16 R/B
OBJECT_ID      = 1994-023B
CENTER_NAME    = EARTH
REF_FRAME      = TEME
TIME_SYSTEM    = UTC
MEAN_ELEMENT_THEORY = SGP/SGP4

EPOCH          = 2025-11-08T04:40:28.193664
MEAN_MOTION    = 14.14993057
ECCENTRICITY   = .0001628
INCLINATION    = 71.0003
RA_OF_ASC_NODE = 326.0341
ARG_OF_PERICENTER = 172.9017
MEAN_ANOMALY   = 187.2129

EPHEMERIS_TYPE = 0
CLASSIFICATION_TYPE = U
NORAD_CAT_ID   = 23088
ELEMENT_SET_NO = 999
REV_AT_EPOCH   = 62890
BSTAR          = -.37827E-4
MEAN_MOTION_DOT = -.121E-5
MEAN_MOTION_DDOT = 0

CCSDS_OMM_VERS = 2.0
CREATION_DATE  = 
ORIGINATOR     = 

OBJECT_NAME    = SL-16 R/B
OBJECT_ID      = 1994-074B
CENTER_NAME    = EARTH
REF_FRAME      = TEME
TIME_SYSTEM    = UTC
MEAN_ELEMENT_THEORY = SGP/SGP4

EPOCH          = 2025-11-08T02:38:15.741024
MEAN_MOTION    = 14.79227744
ECCENTRICITY   = .0005166
INCLINATION    = 97.7249
RA_OF_ASC_NODE = 342.7835
ARG_OF_PERICENTER = 254.0094
MEAN_ANOMALY   = 169.6617

EPHEMERIS_TYPE = 0
CLASSIFICATION_TYPE = U
NORAD_CAT_ID   = 23343
ELEMENT_SET_NO = 999
REV_AT_EPOCH   = 66927
BSTAR          = .10887E-3
MEAN_MOTION_DOT = .759E-5
MEAN_MOTION_DDOT = 0

CCSDS_OMM_VERS = 2.0
CREATION_DATE  = 
ORIGINATOR     = 

OBJECT_NAME    = SL-16 R/B
OBJECT_ID      = 1994-077B
CENTER_NAME    = EARTH
REF_FRAME      = TEME
TIME_SYSTEM    = UTC
MEAN_ELEMENT_THEORY = SGP/SGP4

EPOCH          = 2025-11-08T03:40:28.617600
MEAN_MOTION    = 14.15540959
ECCENTRICITY   = .0003683
INCLINATION    = 70.9821
RA_OF_ASC_NODE = 248.1719
ARG_OF_PERICENTER = 312.2181
MEAN_ANOMALY   = 47.8629

EPHEMERIS_TYPE = 0
CLASSIFICATION_TYPE = U
NORAD_CAT_ID   = 23405
ELEMENT_SET_NO = 999
REV_AT_EPOCH   = 59903
BSTAR          = .19129E-3
MEAN_MOTION_DOT = .326E-5
MEAN_MOTION_DDOT = 0

CCSDS_OMM_VERS = 2.0
CREATION_DATE  = 
ORIGINATOR     = 

OBJECT_NAME    = ARIANE 40+ R/B
OBJECT_ID      = 1995-021B
CENTER_NAME    = EARTH
REF_FRAME      = TEME
TIME_SYSTEM    = UTC
MEAN_ELEMENT_THEORY = SGP/SGP4

EPOCH          = 2025-11-08T04:40:01.205760
MEAN_MOTION    = 14.39653294
ECCENTRICITY   = .0007537
INCLINATION    = 98.4690
RA_OF_ASC_NODE = 20.1942
ARG_OF_PERICENTER = 139.6648
MEAN_ANOMALY   = 278.8890

EPHEMERIS_TYPE = 0
CLASSIFICATION_TYPE = U
NORAD_CAT_ID   = 23561
ELEMENT_SET_NO = 999
REV_AT_EPOCH   = 60176
BSTAR          = .18028E-3
MEAN_MOTION_DOT = .52E-5
MEAN_MOTION_DDOT = 0

CCSDS_OMM_VERS = 2.0
CREATION_DATE  = 
ORIGINATOR     = 

OBJECT_NAME    = SL-16 R/B
OBJECT_ID      = 1995-058B
CENTER_NAME    = EARTH
REF_FRAME      = TEME
TIME_SYSTEM    = UTC
MEAN_ELEMENT_THEORY = SGP/SGP4

EPOCH          = 2025-11-08T02:00:04.940064
MEAN_MOTION    = 14.15475619
ECCENTRICITY   = .0014611
INCLINATION    = 71.0216
RA_OF_ASC_NODE = 75.5613
ARG_OF_PERICENTER = 300.1908
MEAN_ANOMALY   = 59.7767

EPHEMERIS_TYPE = 0
CLASSIFICATION_TYPE = U
NORAD_CAT_ID   = 23705
ELEMENT_SET_NO = 999
REV_AT_EPOCH   = 55064
BSTAR          = .88407E-4
MEAN_MOTION_DOT = .125E-5
MEAN_MOTION_DDOT = 0

